NORAD_CAT_ID,OBJECT_NAME,OBJECT_TYPE,EPOCH,MEAN_MOTION,ECCENTRICITY,INCLINATION,RA_OF_ASC_NODE,ARG_OF_PERICENTER,MEAN_ANOMALY,BSTAR,MEAN_MOTION_DOT,MEAN_MOTION_DDOT,TLE_LINE0,TLE_LINE1,TLE_LINE2,SEMIMAJOR_AXIS,PERIOD,APOGEE,PERIGEE,DECAYED
49143.0,STARLINK-3109,PAYLOAD,2024-08-14 13:02:16,14.98319838,0.0003109,69.9983,277.043,273.8345,86.2458,-7.891e-05,-1.034e-05,0.0,0 STARLINK-3109,1 49143U 21082P   24227.54324117 -.00001034  00000-0 -78910-4 0  9997,2 49143  69.9983 277.0430 0003109 273.8345  86.2458 14.98319838161886,6950.224,96.108,574.25,569.928,0.0
49143.0,STARLINK-3109,PAYLOAD,2024-08-14 21:02:56,14.98320104,0.0003105,69.9979,276.2015,268.0699,92.0104,1.3835e-05,7.2e-07,0.0,0 STARLINK-3109,1 49143U 21082P   24227.87704085  .00000072  00000-0  13835-4 0  9993,2 49143  69.9979 276.2015 0003105 268.0699  92.0104 14.98320104161932,6950.223,96.108,574.247,569.93,0.0
49143.0,STARLINK-3109,PAYLOAD,2024-08-15 05:03:37,14.98304815,0.0002998,69.998,275.3606,269.6013,90.4802,6.8708e-05,7.26e-06,0.0,0 STARLINK-3109,1 49143U 21082P   24228.21085238  .00000726  00000-0  68708-4 0  9999,2 49143  69.9980 275.3606 0002998 269.6013  90.4802 14.98304815160865,6950.271,96.109,574.219,570.052,0.0
49143.0,STARLINK-3109,PAYLOAD,2024-08-15 09:52:02,14.98298985,0.0003207,69.9981,274.8555,271.0675,89.0116,7.8632e-05,8.45e-06,0.0,0 STARLINK-3109,1 49143U 21082P   24228.41113867  .00000845  00000-0  78632-4 0  9990,2 49143  69.9981 274.8555 0003207 271.0675  89.0116 14.98298985162019,6950.289,96.109,574.383,569.925,0.0
49143.0,STARLINK-3109,PAYLOAD,2024-08-15 21:04:58,14.98329516,0.0003115,69.9983,273.6769,271.1711,88.9091,-0.00030747,-3.76e-05,0.0,0 STARLINK-3109,1 49143U 21082P   24228.87845252 -.00003760  00000-0 -30747-3 0  9995,2 49143  69.9983 273.6769 0003115 271.1711  88.9091 14.98329516160962,6950.194,96.107,574.224,569.894,0.0
49143.0,STARLINK-3109,PAYLOAD,2024-08-16 09:54:02,14.98325694,0.000318,69.9978,272.3293,271.2184,88.8611,0.0002311,2.665e-05,0.0,0 STARLINK-3109,1 49143U 21082P   24229.41252927  .00002665  00000-0  23110-3 0  9994,2 49143  69.9978 272.3293 0003180 271.2184  88.8611 14.98325694162165,6950.206,96.107,574.281,569.861,0.0
49143.0,STARLINK-3109,PAYLOAD,2024-08-17 05:07:38,14.98334112,0.0003358,69.9976,270.3094,271.6307,88.4468,0.00046135,5.417e-05,0.0,0 STARLINK-3109,1 49143U 21082P   24230.21364392  .00005417  00000-0  46135-3 0  9994,2 49143  69.9976 270.3094 0003358 271.6307  88.4468 14.98334112161168,6950.18,96.107,574.379,569.711,0.0
49143.0,STARLINK-3109,PAYLOAD,2024-08-17 09:56:03,14.98346091,0.0003392,69.9988,269.8046,272.0114,88.0656,0.00065457,7.729e-05,0.0,0 STARLINK-3109,1 49143U 21082P   24230.41392452  .00007729  00000-0  65457-3 0  9990,2 49143  69.9988 269.8046 0003392 272.0114  88.0656 14.98346091162312,6950.143,96.106,574.366,569.651,0.0
49143.0,STARLINK-3109,PAYLOAD,2024-08-18 05:09:38,14.9835337,0.0003256,69.9995,267.7852,273.4864,86.5922,0.00026416,3.062e-05,0.0,0 STARLINK-3109,1 49143U 21082P   24231.21503213  .00003062  00000-0  26416-3 0  9996,2 49143  69.9995 267.7852 0003256 273.4864  86.5922 14.98353370161314,6950.121,96.106,574.249,569.723,0.0
49143.0,STARLINK-3109,PAYLOAD,2024-08-18 13:10:18,14.98351068,0.000323,69.9992,266.9434,270.5657,89.5132,0.00018154,2.075e-05,0.0,0 STARLINK-3109,1 49143U 21082P   24231.54882852  .00002075  00000-0  18154-3 0  9994,2 49143  69.9992 266.9434 0003230 270.5657  89.5132 14.98351068162485,6950.128,96.106,574.238,569.748,0.0
49143.0,STARLINK-3109,PAYLOAD,2024-08-19 03:35:31,14.98338706,0.0002775,70.0002,265.4291,258.0592,102.0256,-8.3777e-05,-1.093e-05,0.0,0 STARLINK-3109,1 49143U 21082P   24232.14966938 -.00001093  00000-0 -83777-4 0  9994,2 49143  70.0002 265.4291 0002775 258.0592 102.0256 14.98338706161455,6950.166,96.106,573.96,570.102,0.0
49143.0,STARLINK-3109,PAYLOAD,2024-08-19 10:00:04,14.98333708,0.0002992,69.9983,264.7544,268.0977,91.9839,-0.00010614,-1.359e-05,0.0,0 STARLINK-3109,1 49143U 21082P   24232.41671663 -.00001359  00000-0 -10614-3 0  9996,2 49143  69.9983 264.7544 0002992 268.0977  91.9839 14.98333708161496,6950.181,96.107,574.126,569.967,0.0
49143.0,STARLINK-3109,PAYLOAD,2024-08-20 11:38:12,14.98336549,0.000303,69.998,262.0607,268.3529,91.7282,-1.9567e-05,-3.27e-06,0.0,0 STARLINK-3109,1 49143U 21082P   24233.48486780 -.00000327  00000-0 -19567-4 0  9999,2 49143  69.9980 262.0607 0003030 268.3529  91.7282 14.98336549161658,6950.173,96.107,574.144,569.932,0.0
49143.0,STARLINK-3109,PAYLOAD,2024-08-21 11:40:13,14.983328,0.0003167,69.9977,259.5362,270.0371,90.0425,0.00013383,1.504e-05,0.0,0 STARLINK-3109,1 49143U 21082P   24234.48626533  .00001504  00000-0  13383-3 0  9997,2 49143  69.9977 259.5362 0003167 270.0371  90.0425 14.98332800161803,6950.184,96.107,574.25,569.848,0.0
49143.0,STARLINK-3109,PAYLOAD,2024-08-21 19:40:53,14.98329766,0.0003153,69.9978,258.6937,269.4785,90.6012,5.9934e-05,6.22e-06,0.0,0 STARLINK-3109,1 49143U 21082P   24234.82006854  .00000622  00000-0  59934-4 0  9996,2 49143  69.9978 258.6937 0003153 269.4785  90.6012 14.98329766162972,6950.194,96.107,574.25,569.867,0.0
